NORAD_CAT_ID,OBJECT_NAME,OBJECT_TYPE,EPOCH,MEAN_MOTION,ECCENTRICITY,INCLINATION,RA_OF_ASC_NODE,ARG_OF_PERICENTER,MEAN_ANOMALY,BSTAR,MEAN_MOTION_DOT,MEAN_MOTION_DDOT,TLE_LINE0,TLE_LINE1,TLE_LINE2,SEMIMAJOR_AXIS,PERIOD,APOGEE,PERIGEE,DECAYED
52843.0,STARLINK-4188,PAYLOAD,2022-11-17 10:27:06,15.0890716,0.000259,53.2208,58.1909,39.1439,320.974,-0.00088608,-0.0001439,0.0,0 STARLINK-4188,1 52843U 22062P   22321.43549616 -.00014390  00000-0 -88608-3 0  9994,2 52843  53.2208  58.1909 0002590  39.1439 320.9740 15.08907160 23873,6917.675,95.433,541.332,537.748,0.0
52843.0,STARLINK-4188,PAYLOAD,2022-11-17 18:24:04,15.0884073,0.0002346,53.2197,56.7035,33.1302,326.9837,2.4666e-05,1.04e-06,0.0,0 STARLINK-4188,1 52843U 22062P   22321.76671611  .00000104  00000-0  24666-4 0  9992,2 52843  53.2197  56.7035 0002346  33.1302 326.9837 15.08840730 23430,6917.878000000002,95.438,541.366,538.12,0.0
52843.0,STARLINK-4188,PAYLOAD,2022-11-18 05:31:46,15.08833645,0.0002501,53.2191,54.6228,32.7843,327.3304,6.417800000000001e-05,7.33e-06,0.0,0 STARLINK-4188,1 52843U 22062P   22322.23040141  .00000733  00000-0  64178-4 0  9993,2 52843  53.2191  54.6228 0002501  32.7843 327.3304 15.08833645 23995,6917.9,95.438,541.495,538.035,0.0
52843.0,STARLINK-4188,PAYLOAD,2022-11-18 16:39:28,15.08835951,0.0002595,53.2193,52.5417,32.5601,327.5551,0.00020034,2.901e-05,0.0,0 STARLINK-4188,1 52843U 22062P   22322.69407793  .00002901  00000-0  20034-3 0  9994,2 52843  53.2193  52.5417 0002595  32.5601 327.5551 15.08835951 23579,6917.893,95.438,541.553,537.9630000000002,0.0
52843.0,STARLINK-4188,PAYLOAD,2022-11-18 23:01:00,15.08842004,0.0002262,53.2189,51.3523,33.1944,326.9190000000001,0.00011289,1.509e-05,0.0,0 STARLINK-4188,1 52843U 22062P   22322.95903515  .00001509  00000-0  11289-3 0  9991,2 52843  53.2189  51.3523 0002262  33.1944 326.9190 15.08842004 24106,6917.874,95.437,541.304,538.174,0.0
52843.0,STARLINK-4188,PAYLOAD,2022-11-19 08:33:19,15.08841941,0.0002343,53.2185,49.5683,34.436,325.6783,0.00014398,2.004e-05,0.0,0 STARLINK-4188,1 52843U 22062P   22323.35647465  .00002004  00000-0  14398-3 0  9990,2 52843  53.2185  49.5683 0002343  34.4360 325.6783 15.08841941 23678,6917.874,95.437,541.36,538.119,0.0
52843.0,STARLINK-4188,PAYLOAD,2022-11-19 14:54:51,15.08848701,0.0002295,53.2187,48.3789,35.6944,324.4201,7.2086e-05,8.59e-06,0.0,0 STARLINK-4188,1 52843U 22062P   22323.62143094  .00000859  00000-0  72086-4 0  9994,2 52843  53.2187  48.3789 0002295  35.6944 324.4201 15.08848701 23719,6917.854,95.437,541.306,538.131,0.0
52843.0,STARLINK-4188,PAYLOAD,2022-11-20 05:13:20,15.08843063,0.0002467,53.2185,45.7034,33.4113,326.7035,6.7628e-05,7.88e-06,0.0,0 STARLINK-4188,1 52843U 22062P   22324.21759265  .00000788  00000-0  67628-4 0  9990,2 52843  53.2185  45.7034 0002467  33.4113 326.7035 15.08843063 24296,6917.871,95.437,541.443,538.029,0.0
52843.0,STARLINK-4188,PAYLOAD,2022-11-20 13:10:16,15.08834641,0.0002404,53.2187,44.2151,33.779,326.3355,-7.8453e-05,-1.537e-05,0.0,0 STARLINK-4188,1 52843U 22062P   22324.54880237 -.00001537  00000-0 -78453-4 0  9993,2 52843  53.2187  44.2151 0002404  33.7790 326.3355 15.08834641 24346,6917.897,95.438,541.425,538.099,0.0
52843.0,STARLINK-4188,PAYLOAD,2022-11-20 14:45:39,15.08838159,0.0002415,53.2188,43.9181,32.2533,327.8606,-0.00011223,-2.074e-05,0.0,0 STARLINK-4188,1 52843U 22062P   22324.61504101 -.00002074  00000-0 -11223-3 0  9992,2 52843  53.2188  43.9181 0002415  32.2533 327.8606 15.08838159 23866,6917.886,95.438,541.422,538.08,0.0
52843.0,STARLINK-4188,PAYLOAD,2022-11-20 22:42:34,15.08840865,0.0002418,53.2192,42.4315,34.1035,326.0112,-4.3649e-05,-9.83e-06,0.0,0 STARLINK-4188,1 52843U 22062P   22324.94623714 -.00000983  00000-0 -43649-4 0  9995,2 52843  53.2192  42.4315 0002418  34.1035 326.0112 15.08840865 24406,6917.878000000002,95.437,541.415,538.07,0.0
52843.0,STARLINK-4188,PAYLOAD,2022-11-21 09:50:16,15.08845556,0.0002431,53.2191,40.35,33.5972,326.5174,4.5654e-05,4.38e-06,0.0,0 STARLINK-4188,1 52843U 22062P   22325.40991076  .00000438  00000-0  45654-4 0  9997,2 52843  53.2191  40.3500 0002431  33.5972 326.5174 15.08845556 24478,6917.863,95.437,541.41,538.047,0.0
52843.0,STARLINK-4188,PAYLOAD,2022-11-21 11:25:39,15.088490099999998,0.0002434,53.2191,40.0527,33.5638,326.5508,2.5839e-05,1.23e-06,0.0,0 STARLINK-4188,1 52843U 22062P   22325.47614900  .00000123  00000-0  25839-4 0  9996,2 52843  53.2191  40.0527 0002434  33.5638 326.5508 15.08849010 23992,6917.853,95.437,541.4019999999998,538.034,0.0
52843.0,STARLINK-4188,PAYLOAD,2022-11-21 14:36:25,15.08851636,0.0002444,53.2191,39.458,33.9873,326.1275,4.798e-05,4.76e-06,0.0,0 STARLINK-4188,1 52843U 22062P   22325.60862589  .00000476  00000-0  47980-4 0  9991,2 52843  53.2191  39.4580 0002444  33.9873 326.1275 15.08851636 24017,6917.845,95.437,541.401,538.019,0.0
52843.0,STARLINK-4188,PAYLOAD,2022-11-22 11:16:26,15.08841975,0.00023,53.219,35.5908,32.5315,327.5819,0.00011708,1.576e-05,0.0,0 STARLINK-4188,1 52843U 22062P   22326.46974710  .00001576  00000-0  11708-3 0  9996,2 52843  53.2190  35.5908 0002300  32.5315 327.5819 15.08841975 24636,6917.874,95.437,541.33,538.148,0.0
52843.0,STARLINK-4188,PAYLOAD,2022-11-22 14:27:12,15.08837412,0.0002203,53.2206,34.9975,37.7167,322.3979,0.00010319,1.354e-05,0.0,0 STARLINK-4188,1 52843U 22062P   22326.60223059  .00001354  00000-0  10319-3 0  9996,2 52843  53.2206  34.9975 0002203  37.7167 322.3979 15.08837412 24164,6917.888000000001,95.438,541.2769999999998,538.229,0.0
52843.0,STARLINK-4188,PAYLOAD,2022-11-23 04:45:41,15.08840025,0.0002623,53.2191,32.3221,35.1163,325.0002,2.251e-07,-2.85e-06,0.0,0 STARLINK-4188,1 52843U 22062P   22327.19839444 -.00000285  00000-0  22510-6 0  9994,2 52843  53.2191  32.3221 0002623  35.1163 325.0002 15.08840025 24742,6917.88,95.438,541.56,537.931,0.0
52843.0,STARLINK-4188,PAYLOAD,2022-11-23 11:07:14,15.08833344,0.0002413,53.2187,31.1304,32.5839,327.5302,-5.446100000000001e-05,-1.155e-05,0.0,0 STARLINK-4188,1 52843U 22062P   22327.46336023 -.00001155  00000-0 -54461-4 0  9995,2 52843  53.2187  31.1304 0002413  32.5839 327.5302 15.08833344 24290,6917.901,95.438,541.435,538.096,0.0
52843.0,STARLINK-4188,PAYLOAD,2022-11-23 14:18:00,15.08835858,0.0002524,53.2183,30.5366,30.7959,329.3181,-8.755799999999999e-05,-1.682e-05,0.0,0 STARLINK-4188,1 52843U 22062P   22327.59584021 -.00001682  00000-0 -87558-4 0  9990,2 52843  53.2183  30.5366 0002524  30.7959 329.3181 15.08835858 24807,6917.893,95.438,541.504,538.012,0.0
52843.0,STARLINK-4188,PAYLOAD,2022-11-24 10:58:01,15.08836954,0.000247,53.2189,26.6704,29.5497,330.5634,-5.2739e-05,-1.128e-05,0.0,0 STARLINK-4188,1 52843U 22062P   22328.45695938 -.00001128  00000-0 -52739-4 0  9994,2 52843  53.2189  26.6704 0002470  29.5497 330.5634 15.08836954 24443,6917.89,95.438,541.4630000000002,538.0459999999998,0.0
52843.0,STARLINK-4188,PAYLOAD,2022-11-24 20:30:20,15.08835269,0.0002497,53.2192,24.8861,30.3004,329.8132,-5.978600000000001e-05,-1.24e-05,0.0,0 STARLINK-4188,1 52843U 22062P   22328.85440165 -.00001240  00000-0 -59786-4 0  9992,2 52843  53.2192  24.8861 0002497  30.3004 329.8132 15.08835269 24996,6917.895,95.438,541.487,538.0319999999998,0.0
52843.0,STARLINK-4188,PAYLOAD,2022-11-25 10:48:48,15.08837211,0.0002491,53.2186,22.2112,29.0467,331.0664,0.00012911,1.767e-05,0.0,0 STARLINK-4188,1 52843U 22062P   22329.45055649  .00001767  00000-0  12911-3 0  9998,2 52843  53.2186  22.2112 0002491  29.0467 331.0664 15.08837211 25087,6917.889,95.438,541.477,538.031,0.0
52843.0,STARLINK-4188,PAYLOAD,2022-11-25 12:24:11,15.08839186,0.000255,53.219,21.9136,28.0857,332.0272,0.00013533,1.866e-05,0.0,0 STARLINK-4188,1 52843U 22062P   22329.51679581  .00001866  00000-0  13533-3 0  9993,2 52843  53.2190  21.9136 0002550  28.0857 332.0272 15.08839186 24608,6917.8830000000025,95.438,541.512,537.984,0.0
52843.0,STARLINK-4188,PAYLOAD,2022-11-26 12:14:57,15.08844659,0.0002575,53.2192,17.4537,30.5669,329.5473,0.00015045,2.107e-05,0.0,0 STARLINK-4188,1 52843U 22062P   22330.51038999  .00002107  00000-0  15045-3 0  9996,2 52843  53.2192  17.4537 0002575  30.5669 329.5473 15.08844659 24752,6917.866,95.437,541.512,537.95,0.0
52843.0,STARLINK-4188,PAYLOAD,2022-11-26 20:11:53,15.08847203,0.0002636,53.2191,15.9668,30.3762,329.7382,0.00014458,2.014e-05,0.0,0 STARLINK-4188,1 52843U 22062P   22330.84158753  .00002014  00000-0  14458-3 0  9997,2 52843  53.2191  15.9668 0002636  30.3762 329.7382 15.08847203 25298,6917.858,95.437,541.547,537.9,0.0
52843.0,STARLINK-4188,PAYLOAD,2022-11-27 08:54:59,15.088382500000002,0.0002317,53.219,13.5873,34.1777,325.9363,-4.1543e-05,-9.49e-06,0.0,0 STARLINK-4188,1 52843U 22062P   22331.37151746 -.00000949  00000-0 -41543-4 0  9994,2 52843  53.2190  13.5873 0002317  34.1777 325.9363 15.08838250 25371,6917.886,95.438,541.354,538.148,0.0
52843.0,STARLINK-4188,PAYLOAD,2022-11-27 20:02:40,15.08842865,0.0002463,53.2194,11.5064,31.1762,328.9376,-4.2288e-05,-9.61e-06,0.0,0 STARLINK-4188,1 52843U 22062P   22331.83519469 -.00000961  00000-0 -42288-4 0  9996,2 52843  53.2194  11.5064 0002463  31.1762 328.9376 15.08842865 24955,6917.871999999999,95.437,541.441,538.033,0.0
52843.0,STARLINK-4188,PAYLOAD,2022-11-28 10:21:09,15.08839435,0.0002465,53.2197,8.8296,29.3723,330.7407,-7.3961e-05,-1.465e-05,0.0,0 STARLINK-4188,1 52843U 22062P   22332.43135759 -.00001465  00000-0 -73961-4 0  9991,2 52843  53.2197   8.8296 0002465  29.3723 330.7407 15.08839435 25048,6917.882,95.438,541.452,538.0419999999998,0.0
52843.0,STARLINK-4188,PAYLOAD,2022-11-28 19:53:27,15.08841969,0.0002465,53.2197,7.0457,29.9698,330.1435,-4.5774e-05,-1.017e-05,0.0,0 STARLINK-4188,1 52843U 22062P   22332.82879463 -.00001017  00000-0 -45774-4 0  9995,2 52843  53.2197   7.0457 0002465  29.9698 330.1435 15.08841969 25595,6917.874,95.437,541.445,538.034,0.0
